STARLINK-6085           
1 57115U 23090Q   26068.53746065  .00027564  00000+0  15302-2 0  9997
2 57115  42.9983 264.1938 0019382 205.4773 154.5119 15.13089153150525
2024-205P               
1 61907U 24205P   26068.33552329  .00006731  00000+0  33938-3 0  9995
2 61907  97.4202 142.9505 0013596  48.7292 311.5110 15.17390537 73194
